{
  "type": "FeatureCollection",
  "features": [
    {
      "type": "Feature",
      "properties": {
        "norad_id": 66835,
        "name": "STARLINK-35890",
        "group": "last-30-days",
        "lat": -68.62819442871535,
        "lon": 52.23034013485979,
        "alt_km": 413.61340935934913,
        "timestamp": "2025-12-25T09:48:51.005852+00:00",
        "meta_object_name": "STARLINK-35890",
        "meta_object_id": "2025-280Q",
        "meta_epoch": "2025-12-24T23:24:36.294912",
        "meta_mean_motion": 15.52545167,
        "meta_eccentricity": 0.0003206,
        "meta_inclination": 70.0007,
        "meta_ra_of_asc_node": 164.8697,
        "meta_arg_of_pericenter": 274.9067,
        "meta_mean_anomaly": 85.1754,
        "meta_ephemeris_type": 0,
        "meta_classification_type": "U",
        "meta_norad_cat_id": 66835,
        "meta_element_set_no": 999,
        "meta_rev_at_epoch": 483,
        "meta_bstar": 0.001204,
        "meta_mean_motion_dot": 0.0007467,
        "meta_mean_motion_ddot": 0,
        "tle_line1": "1 66835U 25280Q   25358.97542008  .00074670  00000+0  12040-2 0  9995",
        "tle_line2": "2 66835  70.0007 164.8697 0003206 274.9067  85.1754 15.52545167  4837"
      },
      "geometry": {
        "type": "Point",
        "coordinates": [
          52.23034013485979,
          -68.62819442871535
        ]
      }
    },
    {
      "type": "Feature",
      "properties": {
        "norad_id": 66836,
        "name": "STARLINK-35838",
        "group": "last-30-days",
        "lat": -69.21127269377472,
        "lon": 57.29113419491469,
        "alt_km": 413.66190500677476,
        "timestamp": "2025-12-25T09:48:51.005861+00:00",
        "meta_object_name": "STARLINK-35838",
        "meta_object_id": "2025-280R",
        "meta_epoch": "2025-12-24T23:24:06.579360",
        "meta_mean_motion": 15.52546198,
        "meta_eccentricity": 0.0003161,
        "meta_inclination": 70.0009,
        "meta_ra_of_asc_node": 164.8681,
        "meta_arg_of_pericenter": 273.1712,
        "meta_mean_anomaly": 86.9113,
        "meta_ephemeris_type": 0,
        "meta_classification_type": "U",
        "meta_norad_cat_id": 66836,
        "meta_element_set_no": 999,
        "meta_rev_at_epoch": 483,
        "meta_bstar": 0.00095818,
        "meta_mean_motion_dot": 0.00059278,
        "meta_mean_motion_ddot": 0,
        "tle_line1": "1 66836U 25280R   25358.97507615  .00059278  00000+0  95818-3 0  9993",
        "tle_line2": "2 66836  70.0009 164.8681 0003161 273.1712  86.9113 15.52546198  4834"
      },
      "geometry": {
        "type": "Point",
        "coordinates": [
          57.29113419491469,
          -69.21127269377472
        ]
      }
    },
    {
      "type": "Feature",
      "properties": {
        "norad_id": 66837,
        "name": "STARLINK-35729",
        "group": "last-30-days",
        "lat": -69.64076800973055,
        "lon": 62.63313241666072,
        "alt_km": 413.5423277156451,
        "timestamp": "2025-12-25T09:48:51.005871+00:00",
        "meta_object_name": "STARLINK-35729",
        "meta_object_id": "2025-280S",
        "meta_epoch": "2025-12-24T23:23:36.976992",
        "meta_mean_motion": 15.525473,
        "meta_eccentricity": 0.0003249,
        "meta_inclination": 70.0009,
        "meta_ra_of_asc_node": 164.8667,
        "meta_arg_of_pericenter": 274.5701,
        "meta_mean_anomaly": 85.5115,
        "meta_ephemeris_type": 0,
        "meta_classification_type": "U",
        "meta_norad_cat_id": 66837,
        "meta_element_set_no": 999,
        "meta_rev_at_epoch": 483,
        "meta_bstar": 0.001312,
        "meta_mean_motion_dot": 0.00081463,
        "meta_mean_motion_ddot": 0,
        "tle_line1": "1 66837U 25280S   25358.97473353  .00081463  00000+0  13120-2 0  9991",
        "tle_line2": "2 66837  70.0009 164.8667 0003249 274.5701  85.5115 15.52547300  4832"
      },
      "geometry": {
        "type": "Point",
        "coordinates": [
          62.63313241666072,
          -69.64076800973055
        ]
      }
    },
    {
      "type": "Feature",
      "properties": {
        "norad_id": 66838,
        "name": "STARLINK-35886",
        "group": "last-30-days",
        "lat": -69.98767850830126,
        "lon": 73.73433907480782,
        "alt_km": 413.60984249657395,
        "timestamp": "2025-12-25T09:48:51.005881+00:00",
        "meta_object_name": "STARLINK-35886",
        "meta_object_id": "2025-280T",
        "meta_epoch": "2025-12-24T23:22:36.702624",
        "meta_mean_motion": 15.52537791,
        "meta_eccentricity": 0.0003363,
        "meta_inclination": 70.0009,
        "meta_ra_of_asc_node": 164.8636,
        "meta_arg_of_pericenter": 273.8576,
        "meta_mean_anomaly": 86.2227,
        "meta_ephemeris_type": 0,
        "meta_classification_type": "U",
        "meta_norad_cat_id": 66838,
        "meta_element_set_no": 999,
        "meta_rev_at_epoch": 483,
        "meta_bstar": 0.00051509,
        "meta_mean_motion_dot": 0.00031669,
        "meta_mean_motion_ddot": 0,
        "tle_line1": "1 66838U 25280T   25358.97403591  .00031669  00000+0  51509-3 0  9996",
        "tle_line2": "2 66838  70.0009 164.8636 0003363 273.8576  86.2227 15.52537791  4833"
      },
      "geometry": {
        "type": "Point",
        "coordinates": [
          73.73433907480782,
          -69.98767850830126
        ]
      }
    },
    {
      "type": "Feature",
      "properties": {
        "norad_id": 66839,
        "name": "STARLINK-35717",
        "group": "last-30-days",
        "lat": -69.90212784799797,
        "lon": 68.16246180821632,
        "alt_km": 413.46630921791075,
        "timestamp": "2025-12-25T09:48:51.005894+00:00",
        "meta_object_name": "STARLINK-35717",
        "meta_object_id": "2025-280U",
        "meta_epoch": "2025-12-24T23:23:07.335744",
        "meta_mean_motion": 15.52553466,
        "meta_eccentricity": 0.000329,
        "meta_inclination": 70.0009,
        "meta_ra_of_asc_node": 164.8649,
        "meta_arg_of_pericenter": 276.2308,
        "meta_mean_anomaly": 83.8504,
        "meta_ephemeris_type": 0,
        "meta_classification_type": "U",
        "meta_norad_cat_id": 66839,
        "meta_element_set_no": 999,
        "meta_rev_at_epoch": 483,
        "meta_bstar": 0.0015011,
        "meta_mean_motion_dot": 0.00093391,
        "meta_mean_motion_ddot": 0,
        "tle_line1": "1 66839U 25280U   25358.97439046  .00093391  00000+0  15011-2 0  9998",
        "tle_line2": "2 66839  70.0009 164.8649 0003290 276.2308  83.8504 15.52553466  4835"
      },
      "geometry": {
        "type": "Point",
        "coordinates": [
          68.16246180821632,
          -69.90212784799797
        ]
      }
    },
    {
      "type": "Feature",
      "properties": {
        "norad_id": 66840,
        "name": "STARLINK-35837",
        "group": "last-30-days",
        "lat": -69.9003051832209,
        "lon": 79.2387822317512,
        "alt_km": 413.4712292167842,
        "timestamp": "2025-12-25T09:48:51.005904+00:00",
        "meta_object_name": "STARLINK-35837",
        "meta_object_id": "2025-280V",
        "meta_epoch": "2025-12-24T23:22:07.983264",
        "meta_mean_motion": 15.52534676,
        "meta_eccentricity": 0.0003345,
        "meta_inclination": 70.0008,
        "meta_ra_of_asc_node": 164.8627,
        "meta_arg_of_pericenter": 273.4281,
        "meta_mean_anomaly": 86.6523,
        "meta_ephemeris_type": 0,
        "meta_classification_type": "U",
        "meta_norad_cat_id": 66840,
        "meta_element_set_no": 999,
        "meta_rev_at_epoch": 483,
        "meta_bstar": 0.0014648,
        "meta_mean_motion_dot": 0.00091035,
        "meta_mean_motion_ddot": 0,
        "tle_line1": "1 66840U 25280V   25358.97370351  .00091035  00000+0  14648-2 0  9991",
        "tle_line2": "2 66840  70.0008 164.8627 0003345 273.4281  86.6523 15.52534676  4836"
      },
      "geometry": {
        "type": "Point",
        "coordinates": [
          79.2387822317512,
          -69.9003051832209
        ]
      }
    },
    {
      "type": "Feature",
      "properties": {
        "norad_id": 66841,
        "name": "STARLINK-35715",
        "group": "last-30-days",
        "lat": -69.63898482935679,
        "lon": 84.73998181339725,
        "alt_km": 413.5259741453101,
        "timestamp": "2025-12-25T09:48:51.005914+00:00",
        "meta_object_name": "STARLINK-35715",
        "meta_object_id": "2025-280W",
        "meta_epoch": "2025-12-24T23:21:38.373984",
        "meta_mean_motion": 15.52550003,
        "meta_eccentricity": 0.0003312,
        "meta_inclination": 70.0008,
        "meta_ra_of_asc_node": 164.8614,
        "meta_arg_of_pericenter": 269.731,
        "meta_mean_anomaly": 90.3497,
        "meta_ephemeris_type": 0,
        "meta_classification_type": "U",
        "meta_norad_cat_id": 66841,
        "meta_element_set_no": 999,
        "meta_rev_at_epoch": 483,
        "meta_bstar": 0.0010288,
        "meta_mean_motion_dot": 0.00063707,
        "meta_mean_motion_ddot": 0,
        "tle_line1": "1 66841U 25280W   25358.97336081  .00063707  00000+0  10288-2 0  9995",
        "tle_line2": "2 66841  70.0008 164.8614 0003312 269.7310  90.3497 15.52550003  4832"
      },
      "geometry": {
        "type": "Point",
        "coordinates": [
          84.73998181339725,
          -69.63898482935679
        ]
      }
    }
  ]
}